NORAD_CAT_ID,OBJECT_NAME,OBJECT_TYPE,EPOCH,MEAN_MOTION,ECCENTRICITY,INCLINATION,RA_OF_ASC_NODE,ARG_OF_PERICENTER,MEAN_ANOMALY,BSTAR,MEAN_MOTION_DOT,MEAN_MOTION_DDOT,TLE_LINE0,TLE_LINE1,TLE_LINE2,SEMIMAJOR_AXIS,PERIOD,APOGEE,PERIGEE,DECAYED
51733.0,STARLINK-3525,PAYLOAD,2024-04-20 04:07:55,15.08848279,0.00015,53.2186,170.0071,108.9006,251.2149,0.00025941,3.844e-05,0.0,0 STARLINK-3525,1 51733U 22016V   24111.17216920  .00003844  00000-0  25941-3 0  9990,2 51733  53.2186 170.0071 0001500 108.9006 251.2149 15.08848279120685,6917.855,95.437,540.758,538.682,0.0
51733.0,STARLINK-3525,PAYLOAD,2024-04-20 10:29:27,15.08863317,0.000159,53.218,168.8183,108.3791,251.7374,0.0004944,7.594e-05,0.0,0 STARLINK-3525,1 51733U 22016V   24111.43712875  .00007594  00000-0  49440-3 0  9995,2 51733  53.2180 168.8183 0001590 108.3791 251.7374 15.08863317119663,6917.809,95.436,540.774,538.574,0.0
51733.0,STARLINK-3525,PAYLOAD,2024-04-21 03:58:41,15.08864862,0.0001499,53.2179,165.5477,91.9537,268.1627,0.00020519,2.981e-05,0.0,0 STARLINK-3525,1 51733U 22016V   24112.16576028  .00002981  00000-0  20519-3 0  9995,2 51733  53.2179 165.5477 0001499  91.9537 268.1627 15.08864862120834,6917.804,95.436,540.706,538.632,0.0
51733.0,STARLINK-3525,PAYLOAD,2024-04-21 13:31:00,15.08832197,0.0001337,53.2176,163.7609,120.2028,239.9097,-0.00050913,-8.38e-05,0.0,0 STARLINK-3525,1 51733U 22016V   24112.56320563 -.00008380  00000-0 -50913-3 0  9992,2 51733  53.2176 163.7609 0001337 120.2028 239.9097 15.08832197119831,6917.904,95.438,540.694,538.844,0.0
51733.0,STARLINK-3525,PAYLOAD,2024-04-22 10:11:02,15.08837735,0.0001443,53.217,159.8964,90.6098,269.506,0.00020609,2.993e-05,0.0,0 STARLINK-3525,1 51733U 22016V   24113.42433292  .00002993  00000-0  20609-3 0  9993,2 51733  53.2170 159.8964 0001443  90.6098 269.5060 15.08837735121026,6917.887,95.438,540.751,538.754,0.0
51733.0,STARLINK-3525,PAYLOAD,2024-04-23 08:26:27,15.08825817,0.0001705,53.2172,155.7343,107.5346,252.5833,0.00021351,3.11e-05,0.0,0 STARLINK-3525,1 51733U 22016V   24114.35170723  .00003110  00000-0  21351-3 0  9990,2 51733  53.2172 155.7343 0001705 107.5346 252.5833 15.08825817121162,6917.924,95.438,540.968,538.609,0.0
51733.0,STARLINK-3525,PAYLOAD,2024-04-24 11:28:00,15.08850543,0.0001545,53.2161,150.6767,91.3433,268.7736,0.00047179,7.231e-05,0.0,0 STARLINK-3525,1 51733U 22016V   24115.47778412  .00007231  00000-0  47179-3 0  9997,2 51733  53.2161 150.6767 0001545  91.3433 268.7736 15.08850543121337,6917.848,95.437,540.782,538.644,0.0
51733.0,STARLINK-3525,PAYLOAD,2024-04-25 01:46:28,15.08846942,0.0001754,53.2156,148.0056,84.3373,275.7819,0.00033568,5.059e-05,0.0,0 STARLINK-3525,1 51733U 22016V   24116.07394655  .00005059  00000-0  33568-3 0  9990,2 51733  53.2156 148.0056 0001754  84.3373 275.7819 15.08846942121428,6917.859,95.437,540.938,538.511,0.0
51733.0,STARLINK-3525,PAYLOAD,2024-04-25 09:43:24,15.08850306,0.0001545,53.2154,146.5162,90.8793,269.2376,0.00031678,4.759e-05,0.0,0 STARLINK-3525,1 51733U 22016V   24116.40514377  .00004759  00000-0  31678-3 0  9998,2 51733  53.2154 146.5162 0001545  90.8793 269.2376 15.08850306120416,6917.849,95.437,540.783,538.645,0.0
51733.0,STARLINK-3525,PAYLOAD,2024-04-26 01:37:16,15.08842842,0.0001787,53.2157,143.5454,76.2799,283.8392,0.00016881,2.4e-05,0.0,0 STARLINK-3525,1 51733U 22016V   24117.06754694  .00002400  00000-0  16881-3 0  9999,2 51733  53.2157 143.5454 0001787  76.2799 283.8392 15.08842842121576,6917.872,95.437,540.973,538.5,0.0
51733.0,STARLINK-3525,PAYLOAD,2024-04-26 11:09:34,15.08847839,0.0001581,53.2161,141.7585,89.8023,270.315,7.7491e-05,9.46e-06,0.0,0 STARLINK-3525,1 51733U 22016V   24117.46498434  .00000946  00000-0  77491-4 0  9998,2 51733  53.2161 141.7585 0001581  89.8023 270.3150 15.08847839120571,6917.856,95.437,540.815,538.628,0.0
51733.0,STARLINK-3525,PAYLOAD,2024-04-26 19:06:30,15.08844192,0.0001467,53.2157,140.2692,95.3176,264.7983,4.2772e-05,3.93e-06,0.0,0 STARLINK-3525,1 51733U 22016V   24117.79618476  .00000393  00000-0  42772-4 0  9994,2 51733  53.2157 140.2692 0001467  95.3176 264.7983 15.08844192120629,6917.868,95.437,540.747,538.718,0.0
51733.0,STARLINK-3525,PAYLOAD,2024-04-27 04:38:49,15.08847345,0.0001511,53.2153,138.4846,103.2334,256.8827,0.00015705,2.213e-05,0.0,0 STARLINK-3525,1 51733U 22016V   24118.19362398  .00002213  00000-0  15705-3 0  9996,2 51733  53.2153 138.4846 0001511 103.2334 256.8827 15.08847345121746,6917.858,95.437,540.768,538.678,0.0
51733.0,STARLINK-3525,PAYLOAD,2024-04-27 11:00:21,15.08852433,0.0001621,53.2156,137.2953,101.6312,258.4862,0.00024551,3.623e-05,0.0,0 STARLINK-3525,1 51733U 22016V   24118.45858122  .00003623  00000-0  24551-3 0  9995,2 51733  53.2156 137.2953 0001621 101.6312 258.4862 15.08852433120723,6917.842,95.437,540.829,538.586,0.0
51733.0,STARLINK-3525,PAYLOAD,2024-04-28 04:29:36,15.08834603,0.0001687,53.214,134.0218,107.2748,252.8429,6.547e-06,-1.84e-06,0.0,0 STARLINK-3525,1 51733U 22016V   24119.18723082 -.00000184  00000-0  65470-5 0  9999,2 51733  53.2140 134.0218 0001687 107.2748 252.8429 15.08834603121897,6917.897,95.438,540.929,538.595,0.0
51733.0,STARLINK-3525,PAYLOAD,2024-04-28 10:51:09,15.08832404,0.0001412,53.2154,132.8348,85.0328,275.0825,-1.3399e-05,-5.01e-06,0.0,0 STARLINK-3525,1 51733U 22016V   24119.45219429 -.00000501  00000-0 -13399-4 0  9990,2 51733  53.2154 132.8348 0001412  85.0328 275.0825 15.08832404120876,6917.904,95.438,540.745,538.792,0.0
51733.0,STARLINK-3525,PAYLOAD,2024-04-29 07:31:10,15.08840648,0.0001433,53.2162,128.9707,82.93,277.1855,0.00011256,1.504e-05,0.0,0 STARLINK-3525,1 51733U 22016V   24120.31331262  .00001504  00000-0  11256-3 0  9998,2 51733  53.2162 128.9707 0001433  82.9300 277.1855 15.08840648122067,6917.878,95.438,540.735,538.752,0.0
51733.0,STARLINK-3525,PAYLOAD,2024-04-30 05:46:34,15.08843574,0.0001487,53.2163,124.8079,80.0196,280.0964,0.00026489,3.931e-05,0.0,0 STARLINK-3525,1 51733U 22016V   24121.24067290  .00003931  00000-0  26489-3 0  9998,2 51733  53.2163 124.8079 0001487  80.0196 280.0964 15.08843574121149,6917.869,95.437,540.763,538.706,0.0
51733.0,STARLINK-3525,PAYLOAD,2024-04-30 16:54:15,15.08845229,0.0001497,53.2162,122.7266,80.8309,279.2852,0.00014833,2.074e-05,0.0,0 STARLINK-3525,1 51733U 22016V   24121.70435104  .00002074  00000-0  14833-3 0  9999,2 51733  53.2162 122.7266 0001497  80.8309 279.2852 15.08845229122278,6917.864,95.437,540.765,538.694,0.0
51733.0,STARLINK-3525,PAYLOAD,2024-05-01 08:48:07,15.08846372,0.0001552,53.2166,119.7533,83.3617,276.7552,0.00011159,1.489e-05,0.0,0 STARLINK-3525,1 51733U 22016V   24122.36674968  .00001489  00000-0  11159-3 0  9992,2 51733  53.2166 119.7533 0001552  83.3617 276.7552 15.08846372121310,6917.861,95.437,540.8,538.652,0.0
51733.0,STARLINK-3525,PAYLOAD,2024-05-01 16:45:03,15.08841081,0.0001562,53.2165,118.2677,88.3093,271.8078,1.9621e-05,2.4e-07,0.0,0 STARLINK-3525,1 51733U 22016V   24122.69795152  .00000024  00000-0  19621-4 0  9994,2 51733  53.2165 118.2677 0001562  88.3093 271.8078 15.08841081122420,6917.877,95.437,540.823,538.662,0.0
51733.0,STARLINK-3525,PAYLOAD,2024-05-02 08:38:54,15.08841908,0.0001572,53.2173,115.2912,87.0086,273.1086,4.6949e-05,4.59e-06,0.0,0 STARLINK-3525,1 51733U 22016V   24123.36035413  .00000459  00000-0  46949-4 0  9991,2 51733  53.2173 115.2912 0001572  87.0086 273.1086 15.08841908121462,6917.875,95.437,540.827,538.652,0.0
51733.0,STARLINK-3525,PAYLOAD,2024-05-03 05:18:54,15.08846465,0.000141,53.2164,111.4255,90.8137,269.3017,9.5834e-05,1.238e-05,0.0,0 STARLINK-3525,1 51733U 22016V   24124.22146820  .00001238  00000-0  95834-4 0  9995,2 51733  53.2164 111.4255 0001410  90.8137 269.3017 15.08846465122656,6917.861,95.437,540.701,538.75,0.0
51733.0,STARLINK-3525,PAYLOAD,2024-05-03 08:29:40,15.08848594,0.0001439,53.2166,110.8306,90.8091,269.3066,0.00011415,1.53e-05,0.0,0 STARLINK-3525,1 51733U 22016V   24124.35394609  .00001530  00000-0  11415-3 0  9996,2 51733  53.2166 110.8306 0001439  90.8091 269.3066 15.08848594121612,6917.854,95.437,540.715,538.724,0.0
51733.0,STARLINK-3525,PAYLOAD,2024-05-03 16:26:37,15.0883567,0.0001581,53.2166,109.3441,85.8931,274.2242,1.6616e-05,-2.4e-07,0.0,0 STARLINK-3525,1 51733U 22016V   24124.68515746 -.00000024  00000-0  16616-4 0  9996,2 51733  53.2166 109.3441 0001581  85.8931 274.2242 15.08835670122725,6917.894,95.438,540.852,538.665,0.0
51733.0,STARLINK-3525,PAYLOAD,2024-05-03 22:48:10,15.08833272,0.000167,53.2164,108.1545,86.5898,273.5285,4.8735e-05,4.88e-06,0.0,0 STARLINK-3525,1 51733U 22016V   24124.95011967  .00000488  00000-0  48735-4 0  9992,2 51733  53.2164 108.1545 0001670  86.5898 273.5285 15.08833272121706,6917.901,95.438,540.921,538.611,0.0
51733.0,STARLINK-3525,PAYLOAD,2024-05-04 08:20:29,15.08831799,0.0001461,53.2168,106.37,89.8629,270.253,7.3439e-06,-1.71e-06,0.0,0 STARLINK-3525,1 51733U 22016V   24125.34756379 -.00000171  00000-0  73439-5 0  9999,2 51733  53.2168 106.3700 0001461  89.8629 270.2530 15.08831799122822,6917.905,95.438,540.781,538.76,0.0
51733.0,STARLINK-3525,PAYLOAD,2024-05-05 05:00:29,15.08844466,0.0001377,53.2179,102.5049,88.6762,271.4388,0.00012678,1.731e-05,0.0,0 STARLINK-3525,1 51733U 22016V   24126.20867618  .00001731  00000-0  12678-3 0  9992,2 51733  53.2179 102.5049 0001377  88.6762 271.4388 15.08844466122952,6917.867,95.437,540.684,538.779,0.0
51733.0,STARLINK-3525,PAYLOAD,2024-05-05 08:11:16,15.08845502,0.0001486,53.2171,101.9099,87.4721,272.6441,0.00018239,2.616e-05,0.0,0 STARLINK-3525,1 51733U 22016V   24126.34115793  .00002616  00000-0  18239-3 0  9999,2 51733  53.2171 101.9099 0001486  87.4721 272.6441 15.08845502121915,6917.864,95.437,540.757,538.701,0.0
51733.0,STARLINK-3525,PAYLOAD,2024-05-06 08:02:02,15.08855157,0.0001453,53.2163,97.4484,84.4258,275.69,0.00039131,5.948e-05,0.0,0 STARLINK-3525,1 51733U 22016V   24127.33475376  .00005948  00000-0  39131-3 0  9990,2 51733  53.2163  97.4484 0001453  84.4258 275.6900 15.08855157123124,6917.834,95.437,540.704,538.694,0.0
